[{"OBJECT_NAME":"STARLINK-5137","OBJECT_ID":"2022-125M","EPOCH":"2026-03-09T17:22:19.760448","MEAN_MOTION":15.08835293,"ECCENTRICITY":0.00011632,"INCLINATION":53.2181,"RA_OF_ASC_NODE":218.5459,"ARG_OF_PERICENTER":86.4265,"MEAN_ANOMALY":273.6861,"EPHEMERIS_TYPE":0,"CLASSIFICATION_TYPE":"U","NORAD_CAT_ID":53975,"ELEMENT_SET_NO":999,"REV_AT_EPOCH":18940,"BSTAR":1.0217707e-5,"MEAN_MOTION_DOT":-1.25e-6,"MEAN_MOTION_DDOT":0},{"OBJECT_NAME":"SL-3 R\/B","OBJECT_ID":"1982-039B","EPOCH":"2026-03-09T22:07:28.779168","MEAN_MOTION":15.10083319,"ECCENTRICITY":0.00297187,"INCLINATION":81.1583,"RA_OF_ASC_NODE":215.6942,"ARG_OF_PERICENTER":323.7089,"MEAN_ANOMALY":36.212,"EPHEMERIS_TYPE":0,"CLASSIFICATION_TYPE":"U","NORAD_CAT_ID":13154,"ELEMENT_SET_NO":999,"REV_AT_EPOCH":38167,"BSTAR":0.00020843464,"MEAN_MOTION_DOT":3.451e-5,"MEAN_MOTION_DDOT":0}]
